{"fetched_at":"2026-03-29T16:36:15Z","count":15609,"tles":[{"name":"STARLINK-4482","line1":"1 53530U 22101D   26087.86407542  .00000801  00000+0  68383-4 0  9991","line2":"2 53530  53.2177 348.2621 0001394  95.1757 264.9394 15.08838532199054","category":"Starlink"}]}