{
  "norad_id": 53530,
  "name": "STARLINK-4482",
  "history": [
    {
      "epoch": "2026-03-28T20:44:16.116288",
      "apogee_km": 540.7127826389733,
      "perigee_km": 538.7829694739476,
      "latitude_deg": -7.523178290006515,
      "longitude_deg": -24.048759680008516,
      "semi_major_axis_km": 6917.88487605646,
      "eccentricity": 0.00013948,
      "inclination_deg": 53.2177,
      "raan_deg": 348.2621,
      "arg_perigee_deg": 95.1757,
      "mean_anomaly_deg": 264.9394,
      "mean_motion_rev_day": 15.08838532
    }
  ]
}